{
  "type": "FeatureCollection",
  "features": [
    {
      "type": "Feature",
      "properties": {
        "norad_id": 31429,
        "name": "FENGYUN 1C DEB",
        "group": "fengyun-1c-debris",
        "lat": -31.823083164837477,
        "lon": 54.8307053613062,
        "alt_km": 816.9046001731404,
        "timestamp": "2025-12-26T15:29:39.721678+00:00",
        "meta_object_name": "FENGYUN 1C DEB",
        "meta_object_id": "1999-025BTR",
        "meta_epoch": "2025-12-22T22:45:46.278720",
        "meta_mean_motion": 14.22608914,
        "meta_eccentricity": 0.00141272,
        "meta_inclination": 98.6873,
        "meta_ra_of_asc_node": 45.7417,
        "meta_arg_of_pericenter": 35.194,
        "meta_mean_anomaly": 88.8738,
        "meta_ephemeris_type": 0,
        "meta_classification_type": "U",
        "meta_norad_cat_id": 31429,
        "meta_element_set_no": 999,
        "meta_rev_at_epoch": 96098,
        "meta_bstar": 0.00092186864,
        "meta_mean_motion_dot": 2.019e-05,
        "meta_mean_motion_ddot": 0,
        "tle_line1": "1 31429U 99025BTR 25356.94845230  .00002019  00000+0  92187-3 0  9991",
        "tle_line2": "2 31429  98.6873  45.7417 0014127  35.1940  88.8738 14.22608914960988"
      },
      "geometry": {
        "type": "Point",
        "coordinates": [
          54.8307053613062,
          -31.823083164837477
        ]
      }
    },
    {
      "type": "Feature",
      "properties": {
        "norad_id": 31430,
        "name": "FENGYUN 1C DEB",
        "group": "fengyun-1c-debris",
        "lat": 21.934157285832093,
        "lon": 60.07768062529452,
        "alt_km": 788.3415716761447,
        "timestamp": "2025-12-26T15:29:39.721688+00:00",
        "meta_object_name": "FENGYUN 1C DEB",
        "meta_object_id": "1999-025BTS",
        "meta_epoch": "2025-12-24T02:53:33.918144",
        "meta_mean_motion": 14.25649441,
        "meta_eccentricity": 0.00262734,
        "meta_inclination": 98.7422,
        "meta_ra_of_asc_node": 61.113,
        "meta_arg_of_pericenter": 8.6478,
        "meta_mean_anomaly": 21.3416,
        "meta_ephemeris_type": 0,
        "meta_classification_type": "U",
        "meta_norad_cat_id": 31430,
        "meta_element_set_no": 999,
        "meta_rev_at_epoch": 96280,
        "meta_bstar": 0.00091561863,
        "meta_mean_motion_dot": 2.134e-05,
        "meta_mean_motion_ddot": 0,
        "tle_line1": "1 31430U 99025BTS 25358.12053146  .00002134  00000+0  91562-3 0  9996",
        "tle_line2": "2 31430  98.7422  61.1130 0026273   8.6478  21.3416 14.25649441962802"
      },
      "geometry": {
        "type": "Point",
        "coordinates": [
          60.07768062529452,
          21.934157285832093
        ]
      }
    },
    {
      "type": "Feature",
      "properties": {
        "norad_id": 31431,
        "name": "FENGYUN 1C DEB",
        "group": "fengyun-1c-debris",
        "lat": -47.26552183020557,
        "lon": 58.61412767836448,
        "alt_km": 985.7321859125568,
        "timestamp": "2025-12-26T15:29:39.721698+00:00",
        "meta_object_name": "FENGYUN 1C DEB",
        "meta_object_id": "1999-025BTT",
        "meta_epoch": "2025-12-17T02:48:02.899008",
        "meta_mean_motion": 14.0310372,
        "meta_eccentricity": 0.01337574,
        "meta_inclination": 98.5434,
        "meta_ra_of_asc_node": 239.0286,
        "meta_arg_of_pericenter": 83.045,
        "meta_mean_anomaly": 278.5911,
        "meta_ephemeris_type": 0,
        "meta_classification_type": "U",
        "meta_norad_cat_id": 31431,
        "meta_element_set_no": 999,
        "meta_rev_at_epoch": 94593,
        "meta_bstar": 0.001336432,
        "meta_mean_motion_dot": 2.211e-05,
        "meta_mean_motion_ddot": 0,
        "tle_line1": "1 31431U 99025BTT 25351.11670022  .00002211  00000+0  13364-2 0  9996",
        "tle_line2": "2 31431  98.5434 239.0286 0133757  83.0450 278.5911 14.03103720945937"
      },
      "geometry": {
        "type": "Point",
        "coordinates": [
          58.61412767836448,
          -47.26552183020557
        ]
      }
    },
    {
      "type": "Feature",
      "properties": {
        "norad_id": 31433,
        "name": "FENGYUN 1C DEB",
        "group": "fengyun-1c-debris",
        "lat": -13.408406501505254,
        "lon": 81.53002668344352,
        "alt_km": 876.5538374743956,
        "timestamp": "2025-12-26T15:29:39.721708+00:00",
        "meta_object_name": "FENGYUN 1C DEB",
        "meta_object_id": "1999-025BTV",
        "meta_epoch": "2025-12-21T10:13:00.561216",
        "meta_mean_motion": 14.25519142,
        "meta_eccentricity": 0.01002046,
        "meta_inclination": 98.4108,
        "meta_ra_of_asc_node": 258.5435,
        "meta_arg_of_pericenter": 4.4201,
        "meta_mean_anomaly": 56.5126,
        "meta_ephemeris_type": 0,
        "meta_classification_type": "U",
        "meta_norad_cat_id": 31433,
        "meta_element_set_no": 999,
        "meta_rev_at_epoch": 95676,
        "meta_bstar": 0.0018800586,
        "meta_mean_motion_dot": 4.645e-05,
        "meta_mean_motion_ddot": 0,
        "tle_line1": "1 31433U 99025BTV 25355.42570094  .00004645  00000+0  18801-2 0  9998",
        "tle_line2": "2 31433  98.4108 258.5435 0100204   4.4201  56.5126 14.25519142956768"
      },
      "geometry": {
        "type": "Point",
        "coordinates": [
          81.53002668344352,
          -13.408406501505254
        ]
      }
    },
    {
      "type": "Feature",
      "properties": {
        "norad_id": 31435,
        "name": "FENGYUN 1C DEB",
        "group": "fengyun-1c-debris",
        "lat": -49.77888499815986,
        "lon": -17.281628808650662,
        "alt_km": 724.0215119039858,
        "timestamp": "2025-12-26T15:29:39.721718+00:00",
        "meta_object_name": "FENGYUN 1C DEB",
        "meta_object_id": "1999-025BTX",
        "meta_epoch": "2025-12-25T10:21:45.220032",
        "meta_mean_motion": 14.53464497,
        "meta_eccentricity": 0.0149508,
        "meta_inclination": 99.0371,
        "meta_ra_of_asc_node": 172.2569,
        "meta_arg_of_pericenter": 141.834,
        "meta_mean_anomaly": 219.3554,
        "meta_ephemeris_type": 0,
        "meta_classification_type": "U",
        "meta_norad_cat_id": 31435,
        "meta_element_set_no": 999,
        "meta_rev_at_epoch": 98557,
        "meta_bstar": 0.00022085,
        "meta_mean_motion_dot": 1.007e-05,
        "meta_mean_motion_ddot": 0,
        "tle_line1": "1 31435U 99025BTX 25359.43177338  .00001007  00000+0  22085-3 0  9998",
        "tle_line2": "2 31435  99.0371 172.2569 0149508 141.8340 219.3554 14.53464497985577"
      },
      "geometry": {
        "type": "Point",
        "coordinates": [
          -17.281628808650662,
          -49.77888499815986
        ]
      }
    },
    {
      "type": "Feature",
      "properties": {
        "norad_id": 31436,
        "name": "FENGYUN 1C DEB",
        "group": "fengyun-1c-debris",
        "lat": 64.86631578623107,
        "lon": -164.06717205693224,
        "alt_km": 594.0098628063552,
        "timestamp": "2025-12-26T15:29:39.721727+00:00",
        "meta_object_name": "FENGYUN 1C DEB",
        "meta_object_id": "1999-025BTY",
        "meta_epoch": "2025-12-25T13:37:41.440800",
        "meta_mean_motion": 14.94912309,
        "meta_eccentricity": 0.0040982,
        "meta_inclination": 98.8835,
        "meta_ra_of_asc_node": 214.1877,
        "meta_arg_of_pericenter": 199.4527,
        "meta_mean_anomaly": 190.4492,
        "meta_ephemeris_type": 0,
        "meta_classification_type": "U",
        "meta_norad_cat_id": 31436,
        "meta_element_set_no": 999,
        "meta_rev_at_epoch": 97068,
        "meta_bstar": 0.0049261,
        "meta_mean_motion_dot": 0.00054971,
        "meta_mean_motion_ddot": 0,
        "tle_line1": "1 31436U 99025BTY 25359.56784075  .00054971  00000+0  49261-2 0  9997",
        "tle_line2": "2 31436  98.8835 214.1877 0040982 199.4527 190.4492 14.94912309970681"
      },
      "geometry": {
        "type": "Point",
        "coordinates": [
          -164.06717205693224,
          64.86631578623107
        ]
      }
    },
    {
      "type": "Feature",
      "properties": {
        "norad_id": 31437,
        "name": "FENGYUN 1C DEB",
        "group": "fengyun-1c-debris",
        "lat": -56.36639146868184,
        "lon": -111.3100005167776,
        "alt_km": 746.4381108127491,
        "timestamp": "2025-12-26T15:29:39.721737+00:00",
        "meta_object_name": "FENGYUN 1C DEB",
        "meta_object_id": "1999-025BTZ",
        "meta_epoch": "2025-12-24T04:08:22.097472",
        "meta_mean_motion": 14.42670174,
        "meta_eccentricity": 0.00163555,
        "meta_inclination": 98.8638,
        "meta_ra_of_asc_node": 79.687,
        "meta_arg_of_pericenter": 215.2128,
        "meta_mean_anomaly": 144.7981,
        "meta_ephemeris_type": 0,
        "meta_classification_type": "U",
        "meta_norad_cat_id": 31437,
        "meta_element_set_no": 999,
        "meta_rev_at_epoch": 96675,
        "meta_bstar": 0.0024316964,
        "meta_mean_motion_dot": 8.062e-05,
        "meta_mean_motion_ddot": 0,
        "tle_line1": "1 31437U 99025BTZ 25358.17247798  .00008062  00000+0  24317-2 0  9995",
        "tle_line2": "2 31437  98.8638  79.6870 0016355 215.2128 144.7981 14.42670174966753"
      },
      "geometry": {
        "type": "Point",
        "coordinates": [
          -111.3100005167776,
          -56.36639146868184
        ]
      }
    }
  ]
}